[{"OBJECT_NAME":"SL-8 R/B","OBJECT_ID":"1988-053B","EPOCH":"2026-04-10T07:22:35.408064","MEAN_MOTION":14.38936934,"ECCENTRICITY":0.00211878,"INCLINATION":74.0478,"RA_OF_ASC_NODE":54.1807,"ARG_OF_PERICENTER":229.0134,"MEAN_ANOMALY":281.6789,"EPHEMERIS_TYPE":0,"CLASSIFICATION_TYPE":"U","NORAD_CAT_ID":19257,"ELEMENT_SET_NO":999,"REV_AT_EPOCH":98114,"BSTAR":7.6655717e-5,"MEAN_MOTION_DOT":2.1e-6,"MEAN_MOTION_DDOT":0},{"OBJECT_NAME":"COSMOS 1975","OBJECT_ID":"1988-093A","EPOCH":"2026-04-10T05:14:07.642464","MEAN_MOTION":15.28517342,"ECCENTRICITY":0.00131431,"INCLINATION":82.5171,"RA_OF_ASC_NODE":86.0165,"ARG_OF_PERICENTER":65.015,"MEAN_ANOMALY":295.2453,"EPHEMERIS_TYPE":0,"CLASSIFICATION_TYPE":"U","NORAD_CAT_ID":19573,"ELEMENT_SET_NO":999,"REV_AT_EPOCH":2422,"BSTAR":0.0001911899,"MEAN_MOTION_DOT":5.35e-5,"MEAN_MOTION_DDOT":0},{"OBJECT_NAME":"SL-14 R/B","OBJECT_ID":"1988-093B","EPOCH":"2026-04-10T06:27:30.549312","MEAN_MOTION":14.8569534,"ECCENTRICITY":0.00192478,"INCLINATION":82.5345,"RA_OF_ASC_NODE":12.4065,"ARG_OF_PERICENTER":295.7863,"MEAN_ANOMALY":227.874,"EPHEMERIS_TYPE":0,"CLASSIFICATION_TYPE":"U","NORAD_CAT_ID":19574,"ELEMENT_SET_NO":999,"REV_AT_EPOCH":570,"BSTAR":5.0524535e-5,"MEAN_MOTION_DOT":4.63e-6,"MEAN_MOTION_DDOT":0},{"OBJECT_NAME":"SL-16 R/B","OBJECT_ID":"1988-102B","EPOCH":"2026-04-10T04:42:25.838496","MEAN_MOTION":14.16159077,"ECCENTRICITY":0.00157508,"INCLINATION":70.9979,"RA_OF_ASC_NODE":85.2011,"ARG_OF_PERICENTER":315.9923,"MEAN_ANOMALY":43.9946,"EPHEMERIS_TYPE":0,"CLASSIFICATION_TYPE":"U","NORAD_CAT_ID":19650,"ELEMENT_SET_NO":999,"REV_AT_EPOCH":93135,"BSTAR":0.00013461931,"MEAN_MOTION_DOT":2.19e-6,"MEAN_MOTION_DDOT":0},{"OBJECT_NAME":"INTERCOSMOS 24","OBJECT_ID":"1989-080A","EPOCH":"2026-04-10T06:12:02.047392","MEAN_MOTION":12.59594668,"ECCENTRICITY":0.11871429,"INCLINATION":82.6016,"RA_OF_ASC_NODE":83.8409,"ARG_OF_PERICENTER":219.4921,"MEAN_ANOMALY":131.3581,"EPHEMERIS_TYPE":0,"CLASSIFICATION_TYPE":"U","NORAD_CAT_ID":20261,"ELEMENT_SET_NO":999,"REV_AT_EPOCH":67077,"BSTAR":9.3888339e-5,"MEAN_MOTION_DOT":3.26e-6,"MEAN_MOTION_DDOT":0},{"OBJECT_NAME":"SL-14 R/B","OBJECT_ID":"1989-080C","EPOCH":"2026-04-10T03:53:42.402912","MEAN_MOTION":12.50522646,"ECCENTRICITY":0.12309338,"INCLINATION":82.5935,"RA_OF_ASC_NODE":152.9906,"ARG_OF_PERICENTER":112.8493,"MEAN_ANOMALY":260.7189,"EPHEMERIS_TYPE":0,"CLASSIFICATION_TYPE":"U","NORAD_CAT_ID":20262,"ELEMENT_SET_NO":999,"REV_AT_EPOCH":66408,"BSTAR":8.4893287e-5,"MEAN_MOTION_DOT":3.14e-6,"MEAN_MOTION_DDOT":0},{"OBJECT_NAME":"DELTA 1 R/B","OBJECT_ID":"1989-089B","EPOCH":"2026-04-10T06:43:41.091744","MEAN_MOTION":14.50690494,"ECCENTRICITY":0.0069691,"INCLINATION":97.0681,"RA_OF_ASC_NODE":302.6882,"ARG_OF_PERICENTER":23.8887,"MEAN_ANOMALY":336.5519,"EPHEMERIS_TYPE":0,"CLASSIFICATION_TYPE":"U","NORAD_CAT_ID":20323,"ELEMENT_SET_NO":999,"REV_AT_EPOCH":90031,"BSTAR":8.4073094e-5,"MEAN_MOTION_DOT":3.05e-6,"MEAN_MOTION_DDOT":0},{"OBJECT_NAME":"ARIANE 40 R/B","OBJECT_ID":"1990-005H","EPOCH":"2026-04-10T03:41:27.254688","MEAN_MOTION":14.39892744,"ECCENTRICITY":0.0011385,"INCLINATION":98.3022,"RA_OF_ASC_NODE":159.8675,"ARG_OF_PERICENTER":109.0313,"MEAN_ANOMALY":251.211,"EPHEMERIS_TYPE":0,"CLASSIFICATION_TYPE":"U","NORAD_CAT_ID":20443,"ELEMENT_SET_NO":999,"REV_AT_EPOCH":89733,"BSTAR":8.9999066e-5,"MEAN_MOTION_DOT":2.41e-6,"MEAN_MOTION_DDOT":0},{"OBJECT_NAME":"DELTA 2 R/B(1)","OBJECT_ID":"1990-008B","EPOCH":"2026-04-10T00:39:47.720160","MEAN_MOTION":15.60398161,"ECCENTRICITY":0.00761758,"INCLINATION":35.6036,"RA_OF_ASC_NODE":328.5319,"ARG_OF_PERICENTER":194.011,"MEAN_ANOMALY":165.8511,"EPHEMERIS_TYPE":0,"CLASSIFICATION_TYPE":"U","NORAD_CAT_ID":20453,"ELEMENT_SET_NO":999,"REV_AT_EPOCH":93102,"BSTAR":0.00061015945,"MEAN_MOTION_DOT":0.00060159,"MEAN_MOTION_DDOT":0},{"OBJECT_NAME":"COSMOS 2058","OBJECT_ID":"1990-010A","EPOCH":"2026-04-10T05:26:31.390080","MEAN_MOTION":15.11636765,"ECCENTRICITY":0.00086823,"INCLINATION":82.4724,"RA_OF_ASC_NODE":16.3563,"ARG_OF_PERICENTER":218.0737,"MEAN_ANOMALY":141.9881,"EPHEMERIS_TYPE":0,"CLASSIFICATION_TYPE":"U","NORAD_CAT_ID":20465,"ELEMENT_SET_NO":999,"REV_AT_EPOCH":94700,"BSTAR":0.00021274799,"MEAN_MOTION_DOT":3.646e-5,"MEAN_MOTION_DDOT":0},{"OBJECT_NAME":"SL-14 R/B","OBJECT_ID":"1990-010B","EPOCH":"2026-04-10T07:39:27.857952","MEAN_MOTION":14.8360267,"ECCENTRICITY":0.00195004,"INCLINATION":82.5018,"RA_OF_ASC_NODE":237.6723,"ARG_OF_PERICENTER":191.5126,"MEAN_ANOMALY":168.5646,"EPHEMERIS_TYPE":0,"CLASSIFICATION_TYPE":"U","NORAD_CAT_ID":20466,"ELEMENT_SET_NO":999,"REV_AT_EPOCH":93317,"BSTAR":6.2449842e-5,"MEAN_MOTION_DOT":5.4e-6,"MEAN_MOTION_DDOT":0},{"OBJECT_NAME":"SL-14 R/B","OBJECT_ID":"1990-018B","EPOCH":"2026-04-10T05:34:20.785728","MEAN_MOTION":14.82177555,"ECCENTRICITY":0.00159196,"INCLINATION":82.5244,"RA_OF_ASC_NODE":193.6162,"ARG_OF_PERICENTER":353.4375,"MEAN_ANOMALY":6.6628,"EPHEMERIS_TYPE":0,"CLASSIFICATION_TYPE":"U","NORAD_CAT_ID":20511,"ELEMENT_SET_NO":999,"REV_AT_EPOCH":92725,"BSTAR":4.7029227e-5,"MEAN_MOTION_DOT":3.99e-6,"MEAN_MOTION_DDOT":0},{"OBJECT_NAME":"HST","OBJECT_ID":"1990-037B","EPOCH":"2026-04-10T06:10:45.626592","MEAN_MOTION":15.30009222,"ECCENTRICITY":0.00023715,"INCLINATION":28.4726,"RA_OF_ASC_NODE":184.5722,"ARG_OF_PERICENTER":113.0837,"MEAN_ANOMALY":247.0009,"EPHEMERIS_TYPE":0,"CLASSIFICATION_TYPE":"U","NORAD_CAT_ID":20580,"ELEMENT_SET_NO":999,"REV_AT_EPOCH":77815,"BSTAR":0.00022889756,"MEAN_MOTION_DOT":7.076e-5,"MEAN_MOTION_DDOT":0},{"OBJECT_NAME":"SL-16 R/B","OBJECT_ID":"1990-046B","EPOCH":"2026-04-10T07:06:47.685600","MEAN_MOTION":14.15018894,"ECCENTRICITY":0.00166134,"INCLINATION":70.9995,"RA_OF_ASC_NODE":231.529,"ARG_OF_PERICENTER":258.6796,"MEAN_ANOMALY":101.246,"EPHEMERIS_TYPE":0,"CLASSIFICATION_TYPE":"U","NORAD_CAT_ID":20625,"ELEMENT_SET_NO":999,"REV_AT_EPOCH":85286,"BSTAR":-6.1646783e-5,"MEAN_MOTION_DOT":-1.67e-6,"MEAN_MOTION_DDOT":0},{"OBJECT_NAME":"COSMOS 2084","OBJECT_ID":"1990-055A","EPOCH":"2026-04-09T12:52:26.513472","MEAN_MOTION":15.05846852,"ECCENTRICITY":0.00120951,"INCLINATION":62.79,"RA_OF_ASC_NODE":230.3525,"ARG_OF_PERICENTER":201.1599,"MEAN_ANOMALY":158.9002,"EPHEMERIS_TYPE":0,"CLASSIFICATION_TYPE":"U","NORAD_CAT_ID":20663,"ELEMENT_SET_NO":999,"REV_AT_EPOCH":94096,"BSTAR":0.00019483253,"MEAN_MOTION_DOT":2.644e-5,"MEAN_MOTION_DDOT":0},{"OBJECT_NAME":"SL-6 R/B(2)","OBJECT_ID":"1990-055D","EPOCH":"2026-04-10T03:50:25.610496","MEAN_MOTION":15.03748478,"ECCENTRICITY":0.00299204,"INCLINATION":62.781,"RA_OF_ASC_NODE":146.8187,"ARG_OF_PERICENTER":353.8384,"MEAN_ANOMALY":6.2342,"EPHEMERIS_TYPE":0,"CLASSIFICATION_TYPE":"U","NORAD_CAT_ID":20666,"ELEMENT_SET_NO":999,"REV_AT_EPOCH":94292,"BSTAR":0.00011882959,"MEAN_MOTION_DOT":1.449e-5,"MEAN_MOTION_DDOT":0},{"OBJECT_NAME":"SL-8 R/B","OBJECT_ID":"1990-078B","EPOCH":"2026-04-10T06:46:26.200416","MEAN_MOTION":14.8997731,"ECCENTRICITY":0.03568976,"INCLINATION":82.9045,"RA_OF_ASC_NODE":222.8752,"ARG_OF_PERICENTER":267.3208,"MEAN_ANOMALY":88.712,"EPHEMERIS_TYPE":0,"CLASSIFICATION_TYPE":"U","NORAD_CAT_ID":20775,"ELEMENT_SET_NO":999,"REV_AT_EPOCH":81400,"BSTAR":0.00037151201,"MEAN_MOTION_DOT":0.00012563,"MEAN_MOTION_DDOT":0}]
