SL-8 R/B                
1 19257U 88053B   26100.30735426  .00000210  00000+0  76656-4 0  9993
2 19257  74.0478  54.1807 0021187 229.0134 281.6789 14.38936934981145
COSMOS 1975             
1 19573U 88093A   26100.21814401  .00005350  00000+0  19119-3 0  9999
2 19573  82.5171  86.0165 0013143  65.0150 295.2453 15.28517342 24224
SL-14 R/B               
1 19574U 88093B   26100.26910358  .00000463  00000+0  50525-4 0  9990
2 19574  82.5345  12.4065 0019247 295.7863 227.8740 14.85695340  5703
SL-16 R/B               
1 19650U 88102B   26100.19613239  .00000219  00000+0  13462-3 0  9993
2 19650  70.9979  85.2011 0015750 315.9923  43.9946 14.16159077931358
INTERCOSMOS 24          
1 20261U 89080A   26100.25835703  .00000326  00000+0  93888-4 0  9998
2 20261  82.6016  83.8409 1187142 219.4921 131.3581 12.59594668670774
SL-14 R/B               
1 20262U 89080C   26100.16229633  .00000314  00000+0  84893-4 0  9991
2 20262  82.5935 152.9906 1230933 112.8493 260.7189 12.50522646664087
DELTA 1 R/B             
1 20323U 89089B   26100.28033671  .00000305  00000+0  84073-4 0  9996
2 20323  97.0681 302.6882 0069691  23.8887 336.5519 14.50690494900316
ARIANE 40 R/B           
1 20443U 90005H   26100.15378767  .00000241  00000+0  89999-4 0  9994
2 20443  98.3022 159.8675 0011385 109.0313 251.2110 14.39892744897338
DELTA 2 R/B(1)          
1 20453U 90008B   26100.02763565  .00060159  00000+0  61016-3 0  9991
2 20453  35.6036 328.5319 0076175 194.0110 165.8511 15.60398161931024
COSMOS 2058             
1 20465U 90010A   26100.22675220  .00003646  00000+0  21275-3 0  9990
2 20465  82.4724  16.3563 0008682 218.0737 141.9881 15.11636765947005
SL-14 R/B               
1 20466U 90010B   26100.31907243  .00000540  00000+0  62450-4 0  9995
2 20466  82.5018 237.6723 0019500 191.5126 168.5646 14.83602670933170
SL-14 R/B               
1 20511U 90018B   26100.23218502  .00000399  00000+0  47029-4 0  9995
2 20511  82.5244 193.6162 0015919 353.4375   6.6628 14.82177555927257
HST                     
1 20580U 90037B   26100.25747253  .00007076  00000+0  22890-3 0  9991
2 20580  28.4726 184.5722 0002371 113.0837 247.0009 15.30009222778155
SL-16 R/B               
1 20625U 90046B   26100.29638525 -.00000167  00000+0 -61647-4 0  9996
2 20625  70.9995 231.5290 0016613 258.6796 101.2460 14.15018894852862
COSMOS 2084             
1 20663U 90055A   26099.53641798  .00002644  00000+0  19483-3 0  9998
2 20663  62.7900 230.3525 0012095 201.1599 158.9002 15.05846852940964
SL-6 R/B(2)             
1 20666U 90055D   26100.16001864  .00001449  00000+0  11883-3 0  9995
2 20666  62.7810 146.8187 0029920 353.8384   6.2342 15.03748478942927
SL-8 R/B                
1 20775U 90078B   26100.28224769  .00012563  00000+0  37151-3 0  9990
2 20775  82.9045 222.8752 0356897 267.3208  88.7120 14.89977310814003
